ONEWEB-0207             
1 48242U 21031AJ  25066.42393299  .00000015  00000+0  53154-5 0  9995
2 48242  87.9060  22.4931 0001648  81.4104 278.7213 13.14502755186974
ONEWEB-0208             
1 48243U 21031AK  25066.40570351  .00000208  00000+0  52579-3 0  9992
2 48243  87.9058  22.5108 0001919  75.9212 284.2131 13.14501157186985
ONEWEB-0200             
1 48244U 21031AL  25066.36923557 -.00000061  00000+0 -19938-3 0  9999
2 48244  87.9055  22.5116 0001933  74.7406 285.3937 13.14503768186908
ONEWEB-0217             
1 48245U 21031AM  25066.38509684  .00000126  00000+0  30470-3 0  9997
2 48245  87.9054  22.4929 0002002  72.8726 287.2622 13.14504271186857
ONEWEB-0211             
1 48767U 21045A   25066.32588072  .00000083  00000+0  18456-3 0  9995
2 48767  87.9137 352.1622 0002185  76.6491 283.4883 13.16071070183036
ONEWEB-0223             
1 48768U 21045B   25066.35337669 -.00000069  00000+0 -21732-3 0  9990
2 48768  87.9140 352.1747 0002382  78.3093 281.8305 13.15549821183028
ONEWEB-0230             
1 48769U 21045C   25066.32486051  .00000133  00000+0  31827-3 0  9994
2 48769  87.9121 352.2409 0001858  84.1626 275.9716 13.15550676183286
ONEWEB-0237             
1 48770U 21045D   25066.31376805  .00000324  00000+0  82753-3 0  9996
2 48770  87.9144 352.1968 0002179  79.7601 280.3775 13.15550517183001
